start=new Date('2022-01-01T00:00:00.000Z').valueOf();
sats=[{"REV_AT_EPOCH":"4207","MEAN_ANOMALY":"267.6485","PERIOD":"95.593","GP_ID":"192819866","TLE_LINE1":"1 48115U 21027Z   21365.51515195  .00000328  00000-0  41016-4 0  9999","BSTAR":"0.00004101600000","SEMIMAJOR_AXIS":"6925.377","TIME_SYSTEM":"UTC","EPOCH":"2021-12-31T12:21:49.128480","MEAN_MOTION_DOT":"0.00000328","DECAY_DATE":null,"LAUNCH_DATE":"2021-04-07","TLE_LINE2":"2 48115  53.0540 186.3480 0003711  92.4929 267.6485 15.06390574 42076","MEAN_ELEMENT_THEORY":"SGP4","NORAD_CAT_ID":"48115","APOAPSIS":"549.812","OBJECT_NAME":"STARLINK-2452","ELEMENT_SET_NO":"999","OBJECT_ID":"2021-027Z","COUNTRY_CODE":"US","EPHEMERIS_TYPE":"0","RCS_SIZE":"LARGE","MEAN_MOTION_DDOT":"0.0000000000000","ECCENTRICITY":"0.00037110","CLASSIFICATION_TYPE":"U","MEAN_MOTION":"15.06390574","FILE":"3255242","RA_OF_ASC_NODE":"186.3480","PERIAPSIS":"544.672","CENTER_NAME":"EARTH","ARG_OF_PERICENTER":"92.4929","REF_FRAME":"TEME","OBJECT_TYPE":"PAYLOAD","INCLINATION":"53.0540","SITE":"AFETR"},{"DECAY_DATE":null,"LAUNCH_DATE":"2021-04-07","MEAN_MOTION_DOT":"0.00001104","MEAN_ELEMENT_THEORY":"SGP4","TLE_LINE2":"2 48116  53.0521 198.4061 0002159  77.4995 282.6235 15.06393244 41869","NORAD_CAT_ID":"48116","OBJECT_NAME":"STARLINK-2454","APOAPSIS":"548.729","ELEMENT_SET_NO":"999","COUNTRY_CODE":"US","OBJECT_ID":"2021-027AA","MEAN_ANOMALY":"282.6235","REV_AT_EPOCH":"4186","PERIOD":"95.593","SEMIMAJOR_AXIS":"6925.369","TLE_LINE1":"1 48116U 21027AA  21365.05811829  .00001104  00000-0  93034-4 0  9992","BSTAR":"0.00009303400000","GP_ID":"192818627","TIME_SYSTEM":"UTC","EPOCH":"2021-12-31T01:23:41.420256","RA_OF_ASC_NODE":"198.4061","PERIAPSIS":"545.739","CENTER_NAME":"EARTH","ARG_OF_PERICENTER":"77.4995","REF_FRAME":"TEME","OBJECT_TYPE":"PAYLOAD","INCLINATION":"53.0521","SITE":"AFETR","EPHEMERIS_TYPE":"0","MEAN_MOTION_DDOT":"0.0000000000000","ECCENTRICITY":"0.00021590","RCS_SIZE":"LARGE","CLASSIFICATION_TYPE":"U","MEAN_MOTION":"15.06393244","FILE":"3255242"},{"CENTER_NAME":"EARTH","PERIAPSIS":"545.387","RA_OF_ASC_NODE":"175.8390","INCLINATION":"53.0546","SITE":"AFETR","REF_FRAME":"TEME","ARG_OF_PERICENTER":"86.8563","OBJECT_TYPE":"PAYLOAD","EPHEMERIS_TYPE":"0","MEAN_MOTION":"15.06396785","FILE":"3255242","ECCENTRICITY":"0.00026510","MEAN_MOTION_DDOT":"0.0000000000000","RCS_SIZE":"LARGE","CLASSIFICATION_TYPE":"U","NORAD_CAT_ID":"48117","DECAY_DATE":null,"MEAN_MOTION_DOT":"-0.00000767","LAUNCH_DATE":"2021-04-07","TLE_LINE2":"2 48117  53.0546 175.8390 0002651  86.8563 273.2729 15.06396785 42232","MEAN_ELEMENT_THEORY":"SGP4","ELEMENT_SET_NO":"999","COUNTRY_CODE":"US","OBJECT_ID":"2021-027AB","OBJECT_NAME":"STARLINK-2455","APOAPSIS":"549.059","PERIOD":"95.592","SEMIMAJOR_AXIS":"6925.358","BSTAR":"-0.00003257000000","TLE_LINE1":"1 48117U 21027AB  21365.62759270 -.00000767  00000-0 -32570-4 0  9991","GP_ID":"192818877","MEAN_ANOMALY":"273.2729","REV_AT_EPOCH":"4223","EPOCH":"2021-12-31T15:03:44.009280","TIME_SYSTEM":"UTC"},{"INCLINATION":"53.0543","SITE":"AFETR","ARG_OF_PERICENTER":"91.8457","REF_FRAME":"TEME","OBJECT_TYPE":"PAYLOAD","CENTER_NAME":"EARTH","PERIAPSIS":"545.857","RA_OF_ASC_NODE":"176.0832","MEAN_MOTION":"15.06386152","FILE":"3255242","RCS_SIZE":"LARGE","ECCENTRICITY":"0.00020200","MEAN_MOTION_DDOT":"0.0000000000000","CLASSIFICATION_TYPE":"U","EPHEMERIS_TYPE":"0","ELEMENT_SET_NO":"999","OBJECT_ID":"2021-027AC","COUNTRY_CODE":"US","APOAPSIS":"548.655","OBJECT_NAME":"STARLINK-2458","NORAD_CAT_ID":"48118","DECAY_DATE":null,"MEAN_MOTION_DOT":"0.00000537","LAUNCH_DATE":"2021-04-07","TLE_LINE2":"2 48118  53.0543 176.0832 0002020  91.8457 268.2763 15.06386152 42220","MEAN_ELEMENT_THEORY":"SGP4","EPOCH":"2021-12-31T13:44:06.887616","TIME_SYSTEM":"UTC","PERIOD":"95.593","TLE_LINE1":"1 48118U 21027AC  21365.57230194  .00000537  00000-0  54988-4 0  9995","GP_ID":"192820129","BSTAR":"0.00005498800000","SEMIMAJOR_AXIS":"6925.391","REV_AT_EPOCH":"4222","MEAN_ANOMALY":"268.2763"},{"REF_FRAME":"TEME","ARG_OF_PERICENTER":"91.1495","OBJECT_TYPE":"PAYLOAD","INCLINATION":"53.0542","SITE":"AFETR","PERIAPSIS":"545.654","RA_OF_ASC_NODE":"176.0977","CENTER_NAME":"EARTH","MEAN_MOTION_DDOT":"0.0000000000000","ECCENTRICITY":"0.00022560","RCS_SIZE":"LARGE","CLASSIFICATION_TYPE":"U","MEAN_MOTION":"15.06399081","FILE":"3255242","EPHEMERIS_TYPE":"0","APOAPSIS":"548.779","OBJECT_NAME":"STARLINK-2459","ELEMENT_SET_NO":"999","COUNTRY_CODE":"US","OBJECT_ID":"2021-027AD","DECAY_DATE":null,"LAUNCH_DATE":"2021-04-07","MEAN_MOTION_DOT":"-0.00000281","MEAN_ELEMENT_THEORY":"SGP4","TLE_LINE2":"2 48119  53.0542 176.0977 0002256  91.1495 268.9752 15.06399081 42215","NORAD_CAT_ID":"48119","TIME_SYSTEM":"UTC","EPOCH":"2021-12-31T13:38:48.442272","MEAN_ANOMALY":"268.9752","REV_AT_EPOCH":"4221","PERIOD":"95.592","SEMIMAJOR_AXIS":"6925.351","TLE_LINE1":"1 48119U 21027AD  21365.56861623 -.00000281  00000-0  51244-7 0  9994","BSTAR":"0.00000005124400","GP_ID":"192820367"},{"DECAY_DATE":null,"LAUNCH_DATE":"2021-04-07","MEAN_MOTION_DOT":"-0.00000095","TLE_LINE2":"2 48120  53.0540 198.4699 0002284  83.4352 276.6897 15.06398114 41874","MEAN_ELEMENT_THEORY":"SGP4","NORAD_CAT_ID":"48120","APOAPSIS":"548.801","OBJECT_NAME":"STARLINK-2460","ELEMENT_SET_NO":"999","COUNTRY_CODE":"US","OBJECT_ID":"2021-027AE","MEAN_ANOMALY":"276.6897","REV_AT_EPOCH":"4187","PERIOD":"95.592","SEMIMAJOR_AXIS":"6925.354","TLE_LINE1":"1 48120U 21027AE  21365.04336923 -.00000095  00000-0  12533-4 0  9997","GP_ID":"192819128","BSTAR":"0.00001253300000","TIME_SYSTEM":"UTC","EPOCH":"2021-12-31T01:02:27.101472","PERIAPSIS":"545.638","RA_OF_ASC_NODE":"198.4699","CENTER_NAME":"EARTH","ARG_OF_PERICENTER":"83.4352","REF_FRAME":"TEME","OBJECT_TYPE":"PAYLOAD","INCLINATION":"53.0540","SITE":"AFETR","EPHEMERIS_TYPE":"0","ECCENTRICITY":"0.00022840","MEAN_MOTION_DDOT":"0.0000000000000","RCS_SIZE":"LARGE","CLASSIFICATION_TYPE":"U","MEAN_MOTION":"15.06398114","FILE":"3255242"},{"TIME_SYSTEM":"UTC","EPOCH":"2021-12-31T13:05:38.645088","REV_AT_EPOCH":"4207","MEAN_ANOMALY":"269.1630","GP_ID":"192819378","TLE_LINE1":"1 48121U 21027AF  21365.54558617 -.00001145  00000-0 -57947-4 0  9995","BSTAR":"-0.00005794700000","SEMIMAJOR_AXIS":"6925.373","PERIOD":"95.593","APOAPSIS":"548.961","OBJECT_NAME":"STARLINK-2462","OBJECT_ID":"2021-027AF","COUNTRY_CODE":"US","ELEMENT_SET_NO":"999","MEAN_ELEMENT_THEORY":"SGP4","TLE_LINE2":"2 48121  53.0556 186.2145 0002489  90.9644 269.1630 15.06392172 42070","LAUNCH_DATE":"2021-04-07","DECAY_DATE":null,"MEAN_MOTION_DOT":"-0.00001145","NORAD_CAT_ID":"48121","CLASSIFICATION_TYPE":"U","RCS_SIZE":"LARGE","MEAN_MOTION_DDOT":"0.0000000000000","ECCENTRICITY":"0.00024890","FILE":"3255242","MEAN_MOTION":"15.06392172","EPHEMERIS_TYPE":"0","OBJECT_TYPE":"PAYLOAD","ARG_OF_PERICENTER":"90.9644","REF_FRAME":"TEME","SITE":"AFETR","INCLINATION":"53.0556","PERIAPSIS":"545.514","RA_OF_ASC_NODE":"186.2145","CENTER_NAME":"EARTH"},{"CENTER_NAME":"EARTH","PERIAPSIS":"545.175","RA_OF_ASC_NODE":"181.2035","SITE":"AFETR","INCLINATION":"53.0550","OBJECT_TYPE":"PAYLOAD","ARG_OF_PERICENTER":"74.9080","REF_FRAME":"TEME","EPHEMERIS_TYPE":"0","FILE":"3255242","MEAN_MOTION":"15.06436156","CLASSIFICATION_TYPE":"U","ECCENTRICITY":"0.00027830","MEAN_MOTION_DDOT":"0.0000000000000","RCS_SIZE":"LARGE","NORAD_CAT_ID":"48122","TLE_LINE2":"2 48122  53.0550 181.2035 0002783  74.9080 285.2217 15.06436156 42151","MEAN_ELEMENT_THEORY":"SGP4","DECAY_DATE":null,"LAUNCH_DATE":"2021-04-07","MEAN_MOTION_DOT":"0.00004820","COUNTRY_CODE":"US","OBJECT_ID":"2021-027AG","ELEMENT_SET_NO":"999","OBJECT_NAME":"STARLINK-2463","APOAPSIS":"549.030","SEMIMAJOR_AXIS":"6925.238","BSTAR":"0.00034194000000","TLE_LINE1":"1 48122U 21027AG  21365.54690558  .00004820  00000-0  34194-3 0  9996","GP_ID":"192819629","PERIOD":"95.590","MEAN_ANOMALY":"285.2217","REV_AT_EPOCH":"4215","EPOCH":"2021-12-31T13:07:32.642112","TIME_SYSTEM":"UTC"},{"EPHEMERIS_TYPE":"0","MEAN_MOTION":"15.06390880","FILE":"3255242","RCS_SIZE":"LARGE","ECCENTRICITY":"0.00025400","MEAN_MOTION_DDOT":"0.0000000000000","CLASSIFICATION_TYPE":"U","CENTER_NAME":"EARTH","PERIAPSIS":"545.482","RA_OF_ASC_NODE":"175.8687","INCLINATION":"53.0544","SITE":"AFETR","REF_FRAME":"TEME","ARG_OF_PERICENTER":"91.3219","OBJECT_TYPE":"PAYLOAD","PERIOD":"95.593","TLE_LINE1":"1 48123U 21027AH  21365.62023773  .00000588  00000-0  58441-4 0  9994","GP_ID":"192819867","BSTAR":"0.00005844100000","SEMIMAJOR_AXIS":"6925.377","REV_AT_EPOCH":"4223","MEAN_ANOMALY":"268.8061","EPOCH":"2021-12-31T14:53:08.539872","TIME_SYSTEM":"UTC","NORAD_CAT_ID":"48123","LAUNCH_DATE":"2021-04-07","DECAY_DATE":null,"MEAN_MOTION_DOT":"0.00000588","TLE_LINE2":"2 48123  53.0544 175.8687 0002540  91.3219 268.8061 15.06390880 42231","MEAN_ELEMENT_THEORY":"SGP4","ELEMENT_SET_NO":"999","OBJECT_ID":"2021-027AH","COUNTRY_CODE":"US","APOAPSIS":"549.001","OBJECT_NAME":"STARLINK-2464"},{"COUNTRY_CODE":"US","OBJECT_ID":"2021-027AJ","ELEMENT_SET_NO":"999","APOAPSIS":"548.770","OBJECT_NAME":"STARLINK-2465","NORAD_CAT_ID":"48124","TLE_LINE2":"2 48124  53.0554 186.1903 0002195  83.6569 276.4670 15.06388229 42074","MEAN_ELEMENT_THEORY":"SGP4","LAUNCH_DATE":"2021-04-07","DECAY_DATE":null,"MEAN_MOTION_DOT":"0.00000573","EPOCH":"2021-12-31T13:16:15.335328","TIME_SYSTEM":"UTC","SEMIMAJOR_AXIS":"6925.385","BSTAR":"0.00005736800000","TLE_LINE1":"1 48124U 21027AJ  21365.55295527  .00000573  00000-0  57368-4 0  9996","GP_ID":"192818628","PERIOD":"95.593","MEAN_ANOMALY":"276.4670","REV_AT_EPOCH":"4207","SITE":"AFETR","INCLINATION":"53.0554","OBJECT_TYPE":"PAYLOAD","ARG_OF_PERICENTER":"83.6569","REF_FRAME":"TEME","CENTER_NAME":"EARTH","RA_OF_ASC_NODE":"186.1903","PERIAPSIS":"545.730","FILE":"3255242","MEAN_MOTION":"15.06388229","CLASSIFICATION_TYPE":"U","ECCENTRICITY":"0.00021950","MEAN_MOTION_DDOT":"0.0000000000000","RCS_SIZE":"LARGE","EPHEMERIS_TYPE":"0"}];
